{
    "links": {
        "self": "http://www.neowsapp.com/rest/v1/neo/54054335?api_key=iIulBulltgU6a56xZRHN4H3l9WmuAYTsLGpBGhQ2"
    },
    "id": "54054335",
    "neo_reference_id": "54054335",
    "name": "(2020 RD7)",
    "designation": "2020 RD7",
    "nasa_jpl_url": "http://ssd.jpl.nasa.gov/sbdb.cgi?sstr=54054335",
    "absolute_magnitude_h": 26.286,
    "estimated_diameter": {
        "kilometers": {
            "estimated_diameter_min": 0.0147012742,
            "estimated_diameter_max": 0.0328730484
        },
        "meters": {
            "estimated_diameter_min": 14.7012741569,
            "estimated_diameter_max": 32.8730483706
        },
        "miles": {
            "estimated_diameter_min": 0.0091349454,
            "estimated_diameter_max": 0.0204263589
        },
        "feet": {
            "estimated_diameter_min": 48.2325283048,
            "estimated_diameter_max": 107.8512120163
        }
    },
    "is_potentially_hazardous_asteroid": false,
    "close_approach_data": [
        {
            "close_approach_date": "2020-09-08",
            "close_approach_date_full": "2020-Sep-08 00:09",
            "epoch_date_close_approach": 1599523740000,
            "relative_velocity": {
                "kilometers_per_second": "7.2843854123",
                "kilometers_per_hour": "26223.7874841212",
                "miles_per_hour": "16294.4417286752"
            },
            "miss_distance": {
                "astronomical": "0.0402966801",
                "lunar": "15.6754085589",
                "kilometers": "6028297.511031387",
                "miles": "3745810.3778196606"
            },
            "orbiting_body": "Earth"
        }
    ],
    "orbital_data": {
        "orbit_id": "4",
        "orbit_determination_date": "2020-09-24 08:25:33",
        "first_observation_date": "2020-09-15",
        "last_observation_date": "2020-09-24",
        "data_arc_in_days": 9,
        "observations_used": 27,
        "orbit_uncertainty": "8",
        "minimum_orbit_intersection": ".0193",
        "jupiter_tisserand_invariant": "3.670",
        "epoch_osculation": "2459109.5",
        "eccentricity": ".4895490897196504",
        "semi_major_axis": "2.012758293639815",
        "inclination": ".9844309947990526",
        "ascending_node_longitude": "188.2308237019897",
        "orbital_period": "1043.00373619033",
        "perihelion_distance": "1.027414303162767",
        "perihelion_argument": "140.569691357357",
        "aphelion_distance": "2.998102284116864",
        "perihelion_time": "2459087.037988478857",
        "mean_anomaly": "7.752919636843822",
        "mean_motion": ".345156961100575",
        "equinox": "J2000",
        "orbit_class": {
            "orbit_class_type": "AMO",
            "orbit_class_description": "Near-Earth asteroid orbits similar to that of 1221 Amor",
            "orbit_class_range": "1.017 AU < q (perihelion) < 1.3 AU"
        }
    },
    "is_sentry_object": false
}